[
    {
        "Altitude(m)": 610399.5175496442,
        "Argument of Periapsis(deg)": 0.0,
        "Eccentricity": 0.0,
        "Inclination(deg)": 60.0,
        "Latitude(deg)": 52.11130380193111,
        "Longitude(deg)": -27.415819986738207,
        "Mean Anomaly(deg)": 65.4545,
        "RAAN(deg)": 25.0,
        "Satellite Name": "Test1 114",
        "Satellite Number": 114,
        "Semi-Major Axis(m)": 6980739.136638005,
        "Time(s)": 0
    },
    {
        "Altitude(m)": 610481.6691584208,
        "Argument of Periapsis(deg)": 0.00010418945913296404,
        "Eccentricity": 0.0,
        "Inclination(deg)": 60.0,
        "Latitude(deg)": 52.47090740336786,
        "Longitude(deg)": -26.633685948248502,
        "Mean Anomaly(deg)": 66.07460614546183,
        "RAAN(deg)": 24.99957995086026,
        "Satellite Name": "Test1 114",
        "Satellite Number": 114,
        "Semi-Major Axis(m)": 6980739.136638005,
        "Time(s)": 10
    }
]